[{"OBJECT_NAME":"STARLINK-3590","OBJECT_ID":"2022-022R","EPOCH":"2026-03-09T00:47:28.658976","MEAN_MOTION":15.08832415,"ECCENTRICITY":0.00015489,"INCLINATION":53.2184,"RA_OF_ASC_NODE":12.0702,"ARG_OF_PERICENTER":83.0577,"MEAN_ANOMALY":277.0592,"EPHEMERIS_TYPE":0,"CLASSIFICATION_TYPE":"U","NORAD_CAT_ID":51867,"ELEMENT_SET_NO":999,"REV_AT_EPOCH":22301,"BSTAR":0.00014374013,"MEAN_MOTION_DOT":2.0e-5,"MEAN_MOTION_DDOT":0},{"OBJECT_NAME":"FENGYUN 1C DEB","OBJECT_ID":"1999-025QK","EPOCH":"2026-03-09T09:38:35.752416","MEAN_MOTION":15.21777611,"ECCENTRICITY":0.00584989,"INCLINATION":98.8236,"RA_OF_ASC_NODE":15.4163,"ARG_OF_PERICENTER":235.7553,"MEAN_ANOMALY":123.8129,"EPHEMERIS_TYPE":0,"CLASSIFICATION_TYPE":"U","NORAD_CAT_ID":30082,"ELEMENT_SET_NO":999,"REV_AT_EPOCH":2608,"BSTAR":0.001566847,"MEAN_MOTION_DOT":0.00037313,"MEAN_MOTION_DDOT":0}]
